{"type": "FeatureCollection", "features": [ {"type": "Feature", "properties": {"norad_id": 38953, "name": "BEIDOU-2 G6 (C02)", "group": "beidou", "lat": -2.404217295299811, "lon": -67.84187426589156, "alt_km": 35778.57953873422, "timestamp": "2025-12-23T07:45:09.669651+00:00", "meta": {"OBJECT_NAME": "BEIDOU-2 G6 (C02)", "OBJECT_ID": "2012-059A", "EPOCH": "2025-12-22T20:24:42.788736", "MEAN_MOTION": 1.00268399, "ECCENTRICITY": 0.00083109, "INCLINATION": 3.9734, "RA_OF_ASC_NODE": 75.4078, "ARG_OF_PERICENTER": 292.2123, "MEAN_ANOMALY": 114.1262, "EPHEMERIS_TYPE": 0, "CLASSIFICATION_TYPE": "U", "NORAD_CAT_ID": 38953, "ELEMENT_SET_NO": 999, "REV_AT_EPOCH": 4814, "BSTAR": 0, "MEAN_MOTION_DOT": -1.55e-06, "MEAN_MOTION_DDOT": 0}, "tle": {"line1": "1 38953U 12059A   25356.85049524 -.00000155  00000+0  00000+0 0  9993", "line2": "2 38953   3.9734  75.4078 0008310 292.2123 114.1262  1.00268399 48142"}}, "geometry": {"type": "Point", "coordinates": [-67.84187426589156, -2.404217295299811]}}, {"type": "Feature", "properties": {"norad_id": 40549, "name": "BEIDOU-3S IGSO-1S (C31)", "group": "beidou", "lat": 4.218586887858673, "lon": -58.841122453116846, "alt_km": 35932.32184275925, "timestamp": "2025-12-23T07:45:09.669662+00:00", "meta": {"OBJECT_NAME": "BEIDOU-3S IGSO-1S (C31)", "OBJECT_ID": "2015-019A", "EPOCH": "2025-12-18T19:55:38.829792", "MEAN_MOTION": 1.00292047, "ECCENTRICITY": 0.0036331, "INCLINATION": 49.5404, "RA_OF_ASC_NODE": 297.6395, "ARG_OF_PERICENTER": 194.0028, "MEAN_ANOMALY": 349.3621, "EPHEMERIS_TYPE": 0, "CLASSIFICATION_TYPE": "U", "NORAD_CAT_ID": 40549, "ELEMENT_SET_NO": 999, "REV_AT_EPOCH": 3926, "BSTAR": 0, "MEAN_MOTION_DOT": -1.83e-06, "MEAN_MOTION_DDOT": 0}, "tle": {"line1": "1 40549U 15019A   25352.83031053 -.00000183  00000+0  00000+0 0  9999", "line2": "2 40549  49.5404 297.6395 0036331 194.0028 349.3621  1.00292047 39264"}}, "geometry": {"type": "Point", "coordinates": [-58.841122453116846, 4.218586887858673]}}, {"type": "Feature", "properties": {"norad_id": 40748, "name": "BEIDOU-3S M2S (C58)", "group": "beidou", "lat": 53.82179169370555, "lon": 21.02421256371517, "alt_km": 21554.411156113794, "timestamp": "2025-12-23T07:45:09.669674+00:00", "meta": {"OBJECT_NAME": "BEIDOU-3S M2S (C58)", "OBJECT_ID": "2015-037A", "EPOCH": "2025-12-22T03:06:37.980000", "MEAN_MOTION": 1.86229546, "ECCENTRICITY": 0.00118585, "INCLINATION": 55.0305, "RA_OF_ASC_NODE": 308.1418, "ARG_OF_PERICENTER": 270.827, "MEAN_ANOMALY": 89.0356, "EPHEMERIS_TYPE": 0, "CLASSIFICATION_TYPE": "U", "NORAD_CAT_ID": 40748, "ELEMENT_SET_NO": 999, "REV_AT_EPOCH": 7082, "BSTAR": 0, "MEAN_MOTION_DOT": -5.8e-07, "MEAN_MOTION_DDOT": 0}, "tle": {"line1": "1 40748U 15037A   25356.12960625 -.00000058  00000+0  00000+0 0  9993", "line2": "2 40748  55.0305 308.1418 0011858 270.8270  89.0356  1.86229546 70828"}}, "geometry": {"type": "Point", "coordinates": [21.02421256371517, 53.82179169370555]}}, {"type": "Feature", "properties": {"norad_id": 40749, "name": "BEIDOU-3S M1S (C57)", "group": "beidou", "lat": -51.71503692960729, "lon": -114.28808205337272, "alt_km": 21528.727572985572, "timestamp": "2025-12-23T07:45:09.669685+00:00", "meta": {"OBJECT_NAME": "BEIDOU-3S M1S (C57)", "OBJECT_ID": "2015-037B", "EPOCH": "2025-12-21T06:50:01.998240", "MEAN_MOTION": 1.86253999, "ECCENTRICITY": 0.00036481, "INCLINATION": 55.0276, "RA_OF_ASC_NODE": 308.16, "ARG_OF_PERICENTER": 1.485, "MEAN_ANOMALY": 358.5113, "EPHEMERIS_TYPE": 0, "CLASSIFICATION_TYPE": "U", "NORAD_CAT_ID": 40749, "ELEMENT_SET_NO": 999, "REV_AT_EPOCH": 7081, "BSTAR": 0, "MEAN_MOTION_DOT": -6.3e-07, "MEAN_MOTION_DDOT": 0}, "tle": {"line1": "1 40749U 15037B   25355.28474535 -.00000063  00000+0  00000+0 0  9996", "line2": "2 40749  55.0276 308.1600 0003648   1.4850 358.5113  1.86253999 70812"}}, "geometry": {"type": "Point", "coordinates": [-114.28808205337272, -51.71503692960729]}}, {"type": "Feature", "properties": {"norad_id": 40938, "name": "BEIDOU-3S IGSO-2S (C56)", "group": "beidou", "lat": 31.147775709172922, "lon": -68.06244767672375, "alt_km": 35995.695264603346, "timestamp": "2025-12-23T07:45:09.669697+00:00", "meta": {"OBJECT_NAME": "BEIDOU-3S IGSO-2S (C56)", "OBJECT_ID": "2015-053A", "EPOCH": "2025-12-22T18:37:28.318944", "MEAN_MOTION": 1.00268056, "ECCENTRICITY": 0.00606366, "INCLINATION": 49.495, "RA_OF_ASC_NODE": 260.888, "ARG_OF_PERICENTER": 188.7154, "MEAN_ANOMALY": 17.1653, "EPHEMERIS_TYPE": 0, "CLASSIFICATION_TYPE": "U", "NORAD_CAT_ID": 40938, "ELEMENT_SET_NO": 999, "REV_AT_EPOCH": 3758, "BSTAR": 0, "MEAN_MOTION_DOT": -1.06e-06, "MEAN_MOTION_DDOT": 0}, "tle": {"line1": "1 40938U 15053A   25356.77602221 -.00000106  00000+0  00000+0 0  9992", "line2": "2 40938  49.4950 260.8880 0060636 188.7154  17.1653  1.00268056 37588"}}, "geometry": {"type": "Point", "coordinates": [-68.06244767672375, 31.147775709172922]}}, {"type": "Feature", "properties": {"norad_id": 41434, "name": "BEIDOU-2 IGSO-6 (C13)", "group": "beidou", "lat": -59.13007155520432, "lon": -64.97558950245282, "alt_km": 35568.10676205141, "timestamp": "2025-12-23T07:45:09.669708+00:00", "meta": {"OBJECT_NAME": "BEIDOU-2 IGSO-6 (C13)", "OBJECT_ID": "2016-021A", "EPOCH": "2025-12-18T14:33:38.837664", "MEAN_MOTION": 1.00292299, "ECCENTRICITY": 0.00610054, "INCLINATION": 59.9732, "RA_OF_ASC_NODE": 39.8392, "ARG_OF_PERICENTER": 230.2031, "MEAN_ANOMALY": 129.1398, "EPHEMERIS_TYPE": 0, "CLASSIFICATION_TYPE": "U", "NORAD_CAT_ID": 41434, "ELEMENT_SET_NO": 999, "REV_AT_EPOCH": 3566, "BSTAR": 0, "MEAN_MOTION_DOT": -1.41e-06, "MEAN_MOTION_DDOT": 0}, "tle": {"line1": "1 41434U 16021A   25352.60669951 -.00000141  00000+0  00000+0 0  9990", "line2": "2 41434  59.9732  39.8392 0061005 230.2031 129.1398  1.00292299 35667"}}, "geometry": {"type": "Point", "coordinates": [-64.97558950245282, -59.13007155520432]}}, {"type": "Feature", "properties": {"norad_id": 41586, "name": "BEIDOU-2 G7 (C03)", "group": "beidou", "lat": -1.7038985133708122, "lon": -41.21652760180206, "alt_km": 35795.02967095031, "timestamp": "2025-12-23T07:45:09.669720+00:00", "meta": {"OBJECT_NAME": "BEIDOU-2 G7 (C03)", "OBJECT_ID": "2016-037A", "EPOCH": "2025-12-19T15:57:04.317984", "MEAN_MOTION": 1.00271972, "ECCENTRICITY": 0.0005143, "INCLINATION": 1.7733, "RA_OF_ASC_NODE": 67.8469, "ARG_OF_PERICENTER": 2.9481, "MEAN_ANOMALY": 7.4377, "EPHEMERIS_TYPE": 0, "CLASSIFICATION_TYPE": "U", "NORAD_CAT_ID": 41586, "ELEMENT_SET_NO": 999, "REV_AT_EPOCH": 509, "BSTAR": 0, "MEAN_MOTION_DOT": -3.3e-06, "MEAN_MOTION_DDOT": 0}, "tle": {"line1": "1 41586U 16037A   25353.66463331 -.00000330  00000+0  00000+0 0  9996", "line2": "2 41586   1.7733  67.8469 0005143   2.9481   7.4377  1.00271972  5095"}}, "geometry": {"type": "Point", "coordinates": [-41.21652760180206, -1.7038985133708122]}}, {"type": "Feature", "properties": {"norad_id": 43001, "name": "BEIDOU-3 M1 (C19)", "group": "beidou", "lat": -23.4886678786653, "lon": -94.41528962476855, "alt_km": 21532.924473887557, "timestamp": "2025-12-23T07:45:09.669737+00:00", "meta": {"OBJECT_NAME": "BEIDOU-3 M1 (C19)", "OBJECT_ID": "2017-069A", "EPOCH": "2025-12-21T09:37:16.890816", "MEAN_MOTION": 1.86231333, "ECCENTRICITY": 0.00096297, "INCLINATION": 56.5338, "RA_OF_ASC_NODE": 68.9479, "ARG_OF_PERICENTER": 302.2645, "MEAN_ANOMALY": 57.6886, "EPHEMERIS_TYPE": 0, "CLASSIFICATION_TYPE": "U", "NORAD_CAT_ID": 43001, "ELEMENT_SET_NO": 999, "REV_AT_EPOCH": 5529, "BSTAR": 0, "MEAN_MOTION_DOT": -3.5e-07, "MEAN_MOTION_DDOT": 0}, "tle": {"line1": "1 43001U 17069A   25355.40088994 -.00000035  00000+0  00000+0 0  9990", "line2": "2 43001  56.5338  68.9479 0009629 302.2645  57.6886  1.86231333 55292"}}, "geometry": {"type": "Point", "coordinates": [-94.41528962476855, -23.4886678786653]}}, {"type": "Feature", "properties": {"norad_id": 43002, "name": "BEIDOU-3 M2 (C20)", "group": "beidou", "lat": -51.59884128952859, "lon": -54.61532829105878, "alt_km": 21529.798414139812, "timestamp": "2025-12-23T07:45:09.669752+00:00", "meta": {"OBJECT_NAME": "BEIDOU-3 M2 (C20)", "OBJECT_ID": "2017-069B", "EPOCH": "2025-12-22T09:54:58.962816", "MEAN_MOTION": 1.86231087, "ECCENTRICITY": 0.00067293, "INCLINATION": 56.5339, "RA_OF_ASC_NODE": 68.9503, "ARG_OF_PERICENTER": 327.7398, "MEAN_ANOMALY": 32.2697, "EPHEMERIS_TYPE": 0, "CLASSIFICATION_TYPE": "U", "NORAD_CAT_ID": 43002, "ELEMENT_SET_NO": 999, "REV_AT_EPOCH": 5530, "BSTAR": 0, "MEAN_MOTION_DOT": -2.8e-07, "MEAN_MOTION_DDOT": 0}, "tle": {"line1": "1 43002U 17069B   25356.41318244 -.00000028  00000+0  00000+0 0  9999", "line2": "2 43002  56.5339  68.9503 0006729 327.7398  32.2697  1.86231087 55304"}}, "geometry": {"type": "Point", "coordinates": [-54.61532829105878, -51.59884128952859]}}, {"type": "Feature", "properties": {"norad_id": 43107, "name": "BEIDOU-3 M7 (C27)", "group": "beidou", "lat": 46.197186257759334, "lon": -3.5186139229024582, "alt_km": 21514.114059031726, "timestamp": "2025-12-23T07:45:09.669763+00:00", "meta": {"OBJECT_NAME": "BEIDOU-3 M7 (C27)", "OBJECT_ID": "2018-003A", "EPOCH": "2025-12-22T03:44:43.463904", "MEAN_MOTION": 1.86232634, "ECCENTRICITY": 0.00029638, "INCLINATION": 54.4883, "RA_OF_ASC_NODE": 308.4878, "ARG_OF_PERICENTER": 66.6968, "MEAN_ANOMALY": 293.333, "EPHEMERIS_TYPE": 0, "CLASSIFICATION_TYPE": "U", "NORAD_CAT_ID": 43107, "ELEMENT_SET_NO": 999, "REV_AT_EPOCH": 5405, "BSTAR": 0, "MEAN_MOTION_DOT": -5.9e-07, "MEAN_MOTION_DDOT": 0}, "tle": {"line1": "1 43107U 18003A   25356.15605861 -.00000059  00000+0  00000+0 0  9993", "line2": "2 43107  54.4883 308.4878 0002963  66.6968 293.3330  1.86232634 54050"}}, "geometry": {"type": "Point", "coordinates": [-3.5186139229024582, 46.197186257759334]}}]}